NORAD_CAT_ID,OBJECT_NAME,OBJECT_TYPE,EPOCH,MEAN_MOTION,ECCENTRICITY,INCLINATION,RA_OF_ASC_NODE,ARG_OF_PERICENTER,MEAN_ANOMALY,BSTAR,MEAN_MOTION_DOT,MEAN_MOTION_DDOT,TLE_LINE0,TLE_LINE1,TLE_LINE2,SEMIMAJOR_AXIS,PERIOD,APOGEE,PERIGEE,DECAYED
51464.0,STARLINK-3189,PAYLOAD,2022-12-14 11:59:29,15.08847099,0.0004151,53.2134,181.6996,38.3475,321.7811,5.755100000000001e-05,6.27e-06,0.0,0 STARLINK-3189,1 51464U 22010J   22348.49964445  .00000627  00000-0  57551-4 0  9991,2 51464  53.2134 181.6996 0004151  38.3475 321.7811 15.08847099 49008,6917.859,95.437,542.595,536.852,0.0
51464.0,STARLINK-3189,PAYLOAD,2022-12-14 19:56:25,15.08836041,0.000286,53.2145,180.2105,40.5004,319.6201,4.866e-05,4.86e-06,0.0,0 STARLINK-3189,1 51464U 22010J   22348.83084957  .00000486  00000-0  48660-4 0  9994,2 51464  53.2145 180.2105 0002860  40.5004 319.6201 15.08836041 49054,6917.892,95.438,541.736,537.779,0.0
51464.0,STARLINK-3189,PAYLOAD,2022-12-15 13:25:39,15.08844768,0.0002866,53.2143,176.9389,40.2386,319.8818,5.262800000000001e-05,5.49e-06,0.0,0 STARLINK-3189,1 51464U 22010J   22349.55948512  .00000549  00000-0  52628-4 0  9999,2 51464  53.2143 176.9389 0002866  40.2386 319.8818 15.08844768 49167,6917.866,95.437,541.7130000000002,537.748,0.0
51464.0,STARLINK-3189,PAYLOAD,2022-12-15 19:47:11,15.088422199999998,0.0002921,53.2139,175.7497,39.3708,320.7496,1.796e-05,-3e-08,0.0,0 STARLINK-3189,1 51464U 22010J   22349.82444403 -.00000003  00000-0  17960-4 0  9995,2 51464  53.2139 175.7497 0002921  39.3708 320.7496 15.08842220 49207,6917.874,95.437,541.759,537.7180000000002,0.0
51464.0,STARLINK-3189,PAYLOAD,2022-12-15 22:57:59,15.08832162,0.0002915,53.214,175.1552,39.6246,320.4959,-4.9107e-05,-1.07e-05,0.0,0 STARLINK-3189,1 51464U 22010J   22349.95693518 -.00001070  00000-0 -49107-4 0  9996,2 51464  53.2140 175.1552 0002915  39.6246 320.4959 15.08832162 49179,6917.904,95.438,541.786,537.753,0.0
51464.0,STARLINK-3189,PAYLOAD,2022-12-16 13:16:27,15.08827549,0.000287,53.2145,172.4783,40.6138,319.5068,2.3064e-05,7.8e-07,0.0,0 STARLINK-3189,1 51464U 22010J   22350.55310018  .00000078  00000-0  23064-4 0  9994,2 51464  53.2145 172.4783 0002870  40.6138 319.5068 15.08827549 49311,6917.918000000002,95.438,541.769,537.798,0.0
51464.0,STARLINK-3189,PAYLOAD,2022-12-16 21:13:23,15.08828936,0.0002942,53.2136,170.9913,40.5481,319.573,-1.0315e-05,-4.53e-06,0.0,0 STARLINK-3189,1 51464U 22010J   22350.88429760 -.00000453  00000-0 -10315-4 0  9999,2 51464  53.2136 170.9913 0002942  40.5481 319.5730 15.08828936 49361,6917.9140000000025,95.438,541.814,537.744,0.0
51464.0,STARLINK-3189,PAYLOAD,2022-12-17 13:07:14,15.0883185,0.0002956,53.2138,168.0175,41.6255,318.4962,4.2914e-05,3.94e-06,0.0,0 STARLINK-3189,1 51464U 22010J   22351.54670108  .00000394  00000-0  42914-4 0  9999,2 51464  53.2138 168.0175 0002956  41.6255 318.4962 15.08831850 49462,6917.905,95.438,541.815,537.725,0.0
51464.0,STARLINK-3189,PAYLOAD,2022-12-17 19:28:47,15.08835414,0.0002938,53.2138,166.828,42.5945,317.5274,0.0001008,1.316e-05,0.0,0 STARLINK-3189,1 51464U 22010J   22351.81166129  .00001316  00000-0  10080-3 0  9995,2 51464  53.2138 166.8280 0002938  42.5945 317.5274 15.08835414 49502,6917.894,95.438,541.7919999999998,537.727,0.0
51464.0,STARLINK-3189,PAYLOAD,2022-12-18 11:22:39,15.08837,0.0002947,53.2141,163.8544,42.3838,317.7381,0.00024886,3.674e-05,0.0,0 STARLINK-3189,1 51464U 22010J   22352.47406545  .00003674  00000-0  24886-3 0  9995,2 51464  53.2141 163.8544 0002947  42.3838 317.7381 15.08837000 49600,6917.89,95.438,541.793,537.716,0.0
51464.0,STARLINK-3189,PAYLOAD,2022-12-18 19:19:34,15.08842774,0.0003,53.2134,162.3674,42.6867,317.4357,0.00030498,4.569e-05,0.0,0 STARLINK-3189,1 51464U 22010J   22352.80526415  .00004569  00000-0  30498-3 0  9991,2 51464  53.2134 162.3674 0003000  42.6867 317.4357 15.08842774 49655,6917.871999999999,95.437,541.812,537.6619999999998,0.0
51464.0,STARLINK-3189,PAYLOAD,2022-12-19 04:51:53,15.08849376,0.0003038,53.2135,160.5832,43.3396,316.7835,0.00037273,5.65e-05,0.0,0 STARLINK-3189,1 51464U 22010J   22353.20270192  .00005650  00000-0  37273-3 0  9994,2 51464  53.2135 160.5832 0003038  43.3396 316.7835 15.08849376 49667,6917.852,95.437,541.818,537.615,0.0
51464.0,STARLINK-3189,PAYLOAD,2022-12-19 08:02:39,15.08850755,0.0003043,53.2134,159.9885,44.12600000000001,315.9974,0.00038131,5.787e-05,0.0,0 STARLINK-3189,1 51464U 22010J   22353.33518136  .00005787  00000-0  38131-3 0  9996,2 51464  53.2134 159.9885 0003043  44.1260 315.9974 15.08850755 49737,6917.848000000001,95.437,541.818,537.607,0.0
51464.0,STARLINK-3189,PAYLOAD,2022-12-19 17:34:58,15.0885983,0.000307,53.2131,158.2038,45.2631,314.861,0.00049915,7.669e-05,0.0,0 STARLINK-3189,1 51464U 22010J   22353.73261620  .00007669  00000-0  49915-3 0  9996,2 51464  53.2131 158.2038 0003070  45.2631 314.8610 15.08859830 49794,6917.82,95.436,541.809,537.561,0.0
51464.0,STARLINK-3189,PAYLOAD,2022-12-20 12:39:34,15.08854101,0.0003155,53.213,154.6356,46.5735,313.5519,9.969e-06,-1.3e-06,0.0,0 STARLINK-3189,1 51464U 22010J   22354.52748756 -.00000130  00000-0  99690-5 0  9998,2 51464  53.2130 154.6356 0003155  46.5735 313.5519 15.08854101 49867,6917.837,95.437,541.885,537.52,0.0
51464.0,STARLINK-3189,PAYLOAD,2022-12-21 12:30:21,15.08848556,0.0003066,53.2136,150.1741,46.87,313.2548,-2.6534e-05,-7.11e-06,0.0,0 STARLINK-3189,1 51464U 22010J   22355.52108310 -.00000711  00000-0 -26534-4 0  9997,2 51464  53.2136 150.1741 0003066  46.8700 313.2548 15.08848556 50013,6917.854,95.437,541.84,537.5980000000002,0.0
51464.0,STARLINK-3189,PAYLOAD,2022-12-22 02:48:50,15.08837704,0.0003028,53.2144,147.4981,45.5533,314.5707,-0.00018554,-3.24e-05,0.0,0 STARLINK-3189,1 51464U 22010J   22356.11724643 -.00003240  00000-0 -18554-3 0  9998,2 51464  53.2144 147.4981 0003028  45.5533 314.5707 15.08837704 50109,6917.887,95.438,541.847,537.658,0.0
51464.0,STARLINK-3189,PAYLOAD,2022-12-22 05:59:36,15.08841475,0.0002869,53.2153,146.9039,46.1582,313.9647,-8.9731e-05,-1.717e-05,0.0,0 STARLINK-3189,1 51464U 22010J   22356.24972928 -.00001717  00000-0 -89731-4 0  9996,2 51464  53.2153 146.9039 0002869  46.1582 313.9647 15.08841475 50173,6917.876,95.437,541.726,537.756,0.0
51464.0,STARLINK-3189,PAYLOAD,2022-12-22 18:42:41,15.08844424,0.0002997,53.2151,144.5245,45.8934,314.2304,4.4728e-05,4.23e-06,0.0,0 STARLINK-3189,1 51464U 22010J   22356.77964464  .00000423  00000-0  44728-4 0  9998,2 51464  53.2151 144.5245 0002997  45.8934 314.2304 15.08844424 50253,6917.8669999999975,95.437,541.805,537.659,0.0
51464.0,STARLINK-3189,PAYLOAD,2022-12-23 02:39:36,15.08843956,0.0003026,53.2141,143.0375,45.8122,314.3119,5.1917e-05,5.38e-06,0.0,0 STARLINK-3189,1 51464U 22010J   22357.11084294  .00000538  00000-0  51917-4 0  9996,2 51464  53.2141 143.0375 0003026  45.8122 314.3119 15.08843956 50257,6917.868,95.437,541.827,537.64,0.0
51464.0,STARLINK-3189,PAYLOAD,2022-12-23 12:11:56,15.08832016,0.0003058,53.2148,141.2542,45.1833,314.9407,1.1283e-05,-1.09e-06,0.0,0 STARLINK-3189,1 51464U 22010J   22357.50829348 -.00000109  00000-0  11283-4 0  9993,2 51464  53.2148 141.2542 0003058  45.1833 314.9407 15.08832016 50315,6917.905,95.438,541.885,537.654,0.0
51464.0,STARLINK-3189,PAYLOAD,2022-12-23 15:22:42,15.08834394,0.0003071,53.2149,140.6597,45.0145,315.1095,2.8331e-05,1.62e-06,0.0,0 STARLINK-3189,1 51464U 22010J   22357.64077232  .00000162  00000-0  28331-4 0  9995,2 51464  53.2149 140.6597 0003071  45.0145 315.1095 15.08834394 50383,6917.898,95.438,541.887,537.638,0.0
51464.0,STARLINK-3189,PAYLOAD,2022-12-24 02:30:24,15.08837167,0.0002983,53.2151,138.5777,45.2019,314.9215,0.00014595,2.035e-05,0.0,0 STARLINK-3189,1 51464U 22010J   22358.10444820  .00002035  00000-0  14595-3 0  9995,2 51464  53.2151 138.5777 0002983  45.2019 314.9215 15.08837167 50400,6917.889,95.438,541.818,537.69,0.0
51464.0,STARLINK-3189,PAYLOAD,2022-12-24 18:24:16,15.08831128,0.000297,53.215,135.6035,46.3008,313.823,0.00012633,1.722e-05,0.0,0 STARLINK-3189,1 51464U 22010J   22358.76685403  .00001722  00000-0  12633-3 0  9994,2 51464  53.2150 135.6035 0002970  46.3008 313.8230 15.08831128 50507,6917.908,95.438,541.827,537.7180000000002,0.0
51464.0,STARLINK-3189,PAYLOAD,2022-12-25 18:15:03,15.08831375,0.0003026,53.2152,131.1421,46.0936,314.0305,5.444600000000002e-05,5.78e-06,0.0,0 STARLINK-3189,1 51464U 22010J   22359.76045799  .00000578  00000-0  54446-4 0  9990,2 51464  53.2152 131.1421 0003026  46.0936 314.0305 15.08831375 50701,6917.906999999997,95.438,541.865,537.678,0.0
51464.0,STARLINK-3189,PAYLOAD,2022-12-26 02:11:58,15.08841852,0.000283,53.2152,129.6561,43.7944,316.3272,-9.6958e-06,-4.43e-06,0.0,0 STARLINK-3189,1 51464U 22010J   22360.09165207 -.00000443  00000-0 -96958-5 0  9993,2 51464  53.2152 129.6561 0002830  43.7944 316.3272 15.08841852 50702,6917.875,95.437,541.697,537.7819999999998,0.0
51464.0,STARLINK-3189,PAYLOAD,2022-12-26 11:44:17,15.08845996,0.0002882,53.215,127.8717,44.0452,316.077,0.00010553,1.392e-05,0.0,0 STARLINK-3189,1 51464U 22010J   22360.48908694  .00001392  00000-0  10553-3 0  9998,2 51464  53.2150 127.8717 0002882  44.0452 316.0770 15.08845996 50813,6917.861999999999,95.437,541.721,537.7330000000002,0.0
51464.0,STARLINK-3189,PAYLOAD,2022-12-26 14:55:02,15.08856632,0.0002856,53.2152,127.2768,42.894,317.2275,-9.555e-06,-4.41e-06,0.0,0 STARLINK-3189,1 51464U 22010J   22360.62156104 -.00000441  00000-0 -95550-5 0  9993,2 51464  53.2152 127.2768 0002856  42.8940 317.2275 15.08856632 50782,6917.83,95.437,541.67,537.719,0.0
51464.0,STARLINK-3189,PAYLOAD,2022-12-27 02:02:45,15.08835617,0.000288,53.2146,125.1959,44.4543,315.668,0.0001534,2.153e-05,0.0,0 STARLINK-3189,1 51464U 22010J   22361.08525308  .00002153  00000-0  15340-3 0  9997,2 51464  53.2146 125.1959 0002880  44.4543 315.6680 15.08835617 50858,6917.894,95.438,541.751,537.766,0.0
